InventoryID,Glottocode,ISO6393,GlottologName,PhoibleName,SpecificDialect,Source,family_id,level,status,latitude,longitude,country_ids,macroarea,macroarea2,elevation,Uvulars,Marginal_Uvular,Nonmarginal_Uvular,Ejectives,Marginal_Ejective,Nonmarginal_Ejective
391,kaba1278,kbd,Kabardian,KABARDIAN,NA,upsid,abkh1242,language,vulnerable,"43,5082","43,3918",RU TR,Eurasia,Europe,1189,8,0,8,10,0,10
370,iraq1241,irk,Iraqw,IRAQW,NA,upsid,afro1255,language,safe,"-4,19948","35,2939",TZ,Africa,Africa,1841,2,0,2,2,0,2
351,haus1257,hau,Hausa,HAUSA,NA,upsid,afro1255,language,safe,"11,1513","8,7804",BF BJ CM NE NG TD,Africa,Africa,599,0,0,0,3,0,3
198,afad1236,aal,Afade,KOTOKO,NA,upsid,afro1255,language,vulnerable,"12,0551","14,6343",CM NG,Africa,Africa,287,0,0,0,4,0,4
576,tigr1270,tig,Tigre,TIGRE,NA,upsid,afro1255,language,safe,"17,3494","38,2233",ER SD,Africa,Africa,2359,0,0,0,4,0,4
555,soqo1240,sqt,Soqotri,SOCOTRI,NA,upsid,afro1255,language,definitely endangered,"12,4892","53,9168",YE,Eurasia,Western Asia,925,0,0,0,4,1,3
219,amha1245,amh,Amharic,AMHARIC,NA,upsid,afro1255,language,safe,"11,708182","39,543456",DJ ET,Africa,Africa,3396,0,0,0,5,1,4
301,daha1245,dal,Dahalo,DAHALO,NA,upsid,afro1255,language,definitely endangered,"-2,1843","40,37",KE,Africa,Africa,95,0,0,0,8,0,8
552,soma1255,som,Somali,SOMALI,NA,upsid,afro1255,language,safe,"4,778704","45,152856",DJ ET KE SO,Africa,Africa,226,1,0,1,0,0,0
231,egyp1253,arz,Egyptian Arabic,ARABIC,NA,upsid,afro1255,language,safe,31,31,EG IL LY,Africa,Africa,17,3,1,2,0,0,0
575,taha1241,thv,Tahaggart Tamahaq,TAMASHEQ,NA,upsid,afro1255,language,vulnerable,"22,5908","8,73169",DZ LY ML NE,Africa,Africa,991,3,0,3,0,0,0
591,lish1246,trg,Lishán Didán,NEO-ARAMAIC,NA,upsid,afro1255,language,definitely endangered,38,47,AZ GE IL,Eurasia,Western Asia,897,3,0,3,0,0,0
234,awng1244,awn,Awngi,AWIYA,NA,upsid,afro1255,language,safe,"10,9819","36,6916",ET,Africa,Africa,2107,4,0,4,0,0,0
249,beja1238,bej,Beja,BEJA,NA,upsid,afro1255,language,safe,"17,2436","36,6666",EG ER SD,Africa,Africa,370,0,0,0,0,0,0
297,dang1274,daa,Dangaleat,DANGALEAT,NA,upsid,afro1255,language,vulnerable,"12,1517","18,385",TD,Africa,Africa,626,0,0,0,0,0,0
420,dera1248,kna,Dera (Nigeria),KANAKURU,NA,upsid,afro1255,language,safe,"10,072","12,0256",NG,Africa,Africa,213,0,0,0,0,0,0
398,kera1255,ker,Kera,KERA,NA,upsid,afro1255,language,safe,"9,88165","15,1419",CM TD,Africa,Africa,354,0,0,0,0,0,0
470,marg1265,mrt,Marghi Central,MARGI,NA,upsid,afro1255,language,safe,"10,93854","13,0521",NG,Africa,Africa,423,0,0,0,0,0,0
223,ngas1240,anc,Ngas,ANGAS,NA,upsid,afro1255,language,safe,"9,32042","9,46146",NG,Africa,Africa,1236,0,0,0,0,0,0
491,ngiz1242,ngi,Ngizim,NGIZIM,NA,upsid,afro1255,language,vulnerable,"12,1051","11,0178",NG,Africa,Africa,318,0,0,0,0,0,0
446,peve1243,lme,Peve,LAME,NA,upsid,afro1255,language,safe,"9,16111","14,441",CM TD,Africa,Africa,320,0,0,0,0,0,0
542,tach1250,shi,Tachelhit,SHILHA,NA,upsid,afro1255,language,safe,"29,7854","-7,77879",DZ MA,Africa,Africa,1031,0,0,0,0,0,0
595,tera1251,ttr,Tera,TERA,NA,upsid,afro1255,language,safe,"11,0376","11,80953",NG,Africa,Africa,437,0,0,0,0,0,0
207,ainu1240,ain,Hokkaido Ainu,AINU,NA,upsid,ainu1252,language,critically endangered,"43,633654","142,46167",JP,Eurasia,Northern Eurasia,204,0,0,0,0,0,0
508,east2542,ojg,Eastern Ojibwa,OJIBWA,NA,upsid,algi1248,language,definitely endangered,"45,0112","-79,7503",CA,North America,North America,211,0,0,0,0,0,0
614,wiyo1248,wiy,Wiyot,WIYOT,NA,upsid,algi1248,language,extinct,"39,2492","-122,952",US,North America,North America,553,0,0,0,0,0,0
203,anga1290,agm,Angaataha,ANGAATIHA,NA,upsid,anga1289,language,safe,"-7,15012","146,352",PG,Papunesia,New Guinea,1544,0,0,0,0,0,0
230,mapu1245,arn,Mapudungun,ARAUCANIAN,NA,upsid,arau1255,language,definitely endangered,"-38,7392","-71,277",AR CL,South America,South America,1448,0,0,0,0,0,0
292,isla1278,crb,Island Carib,ISLAND CARIB,NA,upsid,araw1281,language,extinct,"15,364795","-61,342957",DO,North America,North America,1,0,0,0,0,0,0
288,asha1243,cni,Asháninka,CAMPA,NA,upsid,araw1281,language,vulnerable,"-11,9311","-73,9073",PE,South America,South America,726,0,0,0,0,0,0
366,igna1246,ign,Ignaciano,MOXO,NA,upsid,araw1281,language,definitely endangered,"-15,1188","-65,3993",BO,South America,South America,132,0,0,0,0,0,0
526,resi1247,rgr,Resígaro,RESIGARO,NA,upsid,araw1281,language,critically endangered,"-2,48139","-71,3578",CO PE,South America,South America,101,0,0,0,0,0,0
608,wapi1253,wap,Wapishana,WAPISHANA,NA,upsid,araw1281,language,vulnerable,"2,58744","-59,8021",BR GY,South America,South America,199,0,0,0,0,0,0
344,wayu1243,guc,Wayuu,GUAJIRO,NA,upsid,araw1281,language,vulnerable,"11,395566","-72,199791",CO VE,South America,South America,32,0,0,0,0,0,0
217,yane1238,ame,Yanesha',AMUESHA,NA,upsid,araw1281,language,definitely endangered,"-10,5454","-75,315",PE,South America,South America,1942,0,0,0,0,0,0
630,yucu1253,ycn,Yucuna,YUCUNA,NA,upsid,araw1281,language,definitely endangered,"-0,76075","-71,0033",BR CO PE,South America,South America,100,0,0,0,0,0,0
206,ahte1237,aht,Ahtena,AHTNA,NA,upsid,atha1245,language,critically endangered,"61,7068","-144,889",US,North America,North America,398,5,0,5,5,0,5
484,nava1243,nav,Navajo,NAVAJO,NA,upsid,atha1245,language,safe,"36,2106","-110,082",US,North America,North America,2196,0,0,0,5,0,5
359,hupa1239,hup,Hupa,HUPA,NA,upsid,atha1245,language,critically endangered,"41,0982","-123,68",US,North America,North America,159,2,0,2,6,0,6
325,eyak1241,eya,Eyak,EYAK,NA,upsid,atha1245,language,extinct,"60,4232","-144,762",US,North America,North America,3,4,0,4,6,0,6
278,chip1261,chp,Chipewyan,CHIPEWYAN,NA,upsid,atha1245,language,definitely endangered,"58,3637","-110,832",CA,North America,North America,334,0,0,0,7,0,7
579,tlin1245,tli,Tlingit,TLINGIT,NA,upsid,atha1245,language,critically endangered,"59,4447","-135,29",CA US,North America,North America,801,10,0,10,15,0,15
647,zulu1248,zul,Zulu,ZULU,NA,upsid,atla1278,language,safe,"-25,3305","31,3512",BW LS MZ SZ ZA,Africa,Africa,1028,0,0,0,5,0,5
618,nucl1347,wol,Wolof,WOLOF,NA,upsid,atla1278,language,safe,"15,2534","-15,383",GM GW ML MR SN,Africa,Africa,43,2,0,2,0,0,0
204,aghe1239,agq,Aghem,AGHEM,NA,upsid,atla1278,language,safe,"6,38956","10,0807",CM,Africa,Africa,1145,0,0,0,0,0,0
208,akan1250,aka,Akan,AKAN,NA,upsid,atla1278,language,safe,"6,34756","-1,33254",GH TG,Africa,Africa,173,0,0,0,0,0,0
212,alla1248,ald,Alladian,ALLADIAN,NA,upsid,atla1278,language,safe,"5,22371","-4,42647",CI,Africa,Africa,75,0,0,0,0,0,0
220,amoo1242,amo,Amo,AMO,NA,upsid,atla1278,language,safe,"10,3229","8,65405",NG,Africa,Africa,764,0,0,0,0,0,0
205,apro1235,ahp,Aproumu Aizi,AIZI,NA,upsid,atla1278,language,safe,"5,20273","-4,52192",CI,Africa,Africa,77,0,0,0,0,0,0
240,baat1238,bba,Baatonum,BARIBA,NA,upsid,atla1278,language,safe,"9,63186","2,99607",BJ NG,Africa,Africa,439,0,0,0,0,0,0
251,beem1239,beq,Beembe,BEEMBE,NA,upsid,atla1278,language,safe,"-3,95895","14,1",CG,Africa,Africa,361,0,0,0,0,0,0
257,bero1242,bom,Berom,BIROM,NA,upsid,atla1278,language,safe,"9,67037","8,81221",NG,Africa,Africa,1219,0,0,0,0,0,0
454,came1252,mcu,Donga Mambila,MAMBILA,NA,upsid,atla1278,language,definitely endangered,"6,43829","11,41953",CM NG,Africa,Africa,843,0,0,0,0,0,0
537,ceba1235,sef,Cebaara Senoufo,SENADI,NA,upsid,atla1278,language,safe,"9,50768","-6,15264",BF CI ML,Africa,Africa,444,0,0,0,0,0,0
299,dagb1246,dag,Dagbani,DAGBANI,NA,upsid,atla1278,language,safe,"9,64745","-0,43227",GH TG,Africa,Africa,175,0,0,0,0,0,0
252,dalo1238,bev,Daloa Bété,BETE,NA,upsid,atla1278,language,safe,"6,69281","-6,63944",CI,Africa,Africa,286,0,0,0,0,0,0
310,doya1240,dow,Doyayo,DOAYO,NA,upsid,atla1278,language,safe,"8,68604","13,0768",CM,Africa,Africa,287,0,0,0,0,0,0
316,efik1245,efi,Efik,EFIK,NA,upsid,atla1278,language,safe,"4,89379","8,38121",CM NG,Africa,Africa,76,0,0,0,0,0,0
320,ejag1239,etu,Ejagham,EJAGHAM,NA,upsid,atla1278,language,safe,"5,54442","8,90959",CM NG,Africa,Africa,500,0,0,0,0,0,0
323,ewee1241,ewe,Ewe,EWE,NA,upsid,atla1278,language,safe,"6,46061","0,814975",GH TG,Africa,Africa,82,0,0,0,0,0,0
324,ewon1239,ewo,Ewondo,EWONDO,NA,upsid,atla1278,language,safe,"4,21141","11,93646",CM GA GQ,Africa,Africa,583,0,0,0,0,0,0
330,fefe1239,fmp,Fe'fe',FE?FE?,NA,upsid,atla1278,language,safe,"5,18158","10,1442",CM,Africa,Africa,1272,0,0,0,0,0,0
335,gaaa1244,gaa,Ga,GA,NA,upsid,atla1278,language,safe,"5,65488","-0,18598",GH,Africa,Africa,77,0,0,0,0,0,0
339,gbag1258,gbr,Gbagyi,GWARI,NA,upsid,atla1278,language,safe,"9,29842","6,90495",NG,Africa,Africa,272,0,0,0,0,0,0
338,gbay1287,gbp,Gbaya-Bossangoa,GBEYA,NA,upsid,atla1278,language,safe,"6,61896","17,645",CF,Africa,Africa,480,0,0,0,0,0,0
372,isok1239,iso,Isoko,ISOKO,NA,upsid,atla1278,language,safe,"5,52889","6,24682",NG,Africa,Africa,83,0,0,0,0,0,0
315,jola1263,dyo,Jola-Fonyi,DIOLA,NA,upsid,atla1278,language,safe,"12,75752","-15,7354766667",GM GW SN,Africa,Africa,15,0,0,0,0,0,0
417,klao1243,klu,Klao,KLAO,NA,upsid,atla1278,language,safe,"6,87233","-10,9214",LR SL,Africa,Africa,90,0,0,0,0,0,0
246,kohu1244,bcs,Kohumono,KOHUMONO,NA,upsid,atla1278,language,safe,"5,92596","7,96202",NG,Africa,Africa,106,0,0,0,0,0,0
424,kpan1246,kpk,Kpan,KPAN,NA,upsid,atla1278,language,vulnerable,"7,58343","10,1642",NG,Africa,Africa,152,0,0,0,0,0,0
441,lele1264,lef,Lelemi,LELEMI,NA,upsid,atla1278,language,safe,"7,34549","0,50746",GH TG,Africa,Africa,464,0,0,0,0,0,0
458,mbaa1245,mfc,Mba,MBA-NE,NA,upsid,atla1278,language,safe,"1,06885","25,143",CD,Africa,Africa,455,0,0,0,0,0,0
455,mbum1254,mdd,Mbum,MBUM,NA,upsid,atla1278,language,safe,"7,5789","14,2722",CF CM,Africa,Africa,794,0,0,0,0,0,0
487,ndut1239,ndv,Ndut,NDUT,NA,upsid,atla1278,language,vulnerable,"14,925","-16,9811",SN,Africa,Africa,32,0,0,0,0,0,0
493,niel1243,nie,Niellim,LUA,NA,upsid,atla1278,language,definitely endangered,"9,70362","17,81346",TD,Africa,Africa,409,0,0,0,0,0,0
492,noon1243,nhu,Noone,NONI,NA,upsid,atla1278,language,safe,"6,37256","10,5707",CM,Africa,Africa,1324,0,0,0,0,0,0
478,nucl1240,mzm,Mumuye,MUMUYE,NA,upsid,atla1278,language,safe,"8,90347","11,71545",NG,Africa,Africa,608,0,0,0,0,0,0
365,nucl1417,ibo,Igbo,IGBO,NA,upsid,atla1278,language,safe,"4,62705","7,23441",NG,Africa,Africa,404,0,0,0,0,0,0
507,ogbi1239,ogb,Ogbia,OGBIA,NA,upsid,atla1278,language,safe,"4,75352","6,34034",NG,Africa,Africa,153,0,0,0,0,0,0
533,sang1328,sag,Sango,SANGO,NA,upsid,atla1278,language,safe,"6,78584","20,1702",CD CF CG TD,Africa,Africa,528,0,0,0,0,0,0
586,tamp1252,tpm,Tampulma,TAMPULMA,NA,upsid,atla1278,language,safe,"9,75577","-1,35467",GH,Africa,Africa,145,0,0,0,0,0,0
631,taro1263,yer,Tarok,TAROK,NA,upsid,atla1278,language,safe,"8,98356","10,0288",NG,Africa,Africa,234,0,0,0,0,0,0
415,teke1280,kkw,Teke-Kukuya,TEKE,NA,upsid,atla1278,language,safe,"-2,27122","14,4407",CG GA,Africa,Africa,581,0,0,0,0,0,0
569,timn1235,tem,Timne,TEMNE,NA,upsid,atla1278,language,safe,"8,90294","-12,3331",GN SL,Africa,Africa,44,0,0,0,0,0,0
290,wame1240,cou,Wamey,KONYAGI,NA,upsid,atla1278,language,vulnerable,"12,5421","-13,177",GN SN,Africa,Africa,83,0,0,0,0,0,0
636,yoru1245,yor,Yoruba,YORUBA,NA,upsid,atla1278,language,safe,"7,15345","3,67225",BJ NG,Africa,Africa,117,0,0,0,0,0,0
645,zand1248,zne,Zande,AZANDE,NA,upsid,atla1278,language,safe,"4,62047","26,7157",CD CF SD,Africa,Africa,646,0,0,0,0,0,0
271,carn1240,caq,Car Nicobarese,NICOBARESE,NA,upsid,aust1305,language,vulnerable,"9,18853","92,7671",IN,Eurasia,South & Southeast Asia,60,0,0,0,0,0,0
407,cent1989,khm,Central Khmer,KHMER,NA,upsid,aust1305,language,safe,"12,0515","105,015",KH LA TH VN,Eurasia,South & Southeast Asia,40,0,0,0,0,0,0
408,khar1287,khr,Kharia,KHARIA,NA,upsid,aust1305,language,vulnerable,"22,3571","84,3922",IN NP,Eurasia,South & Southeast Asia,353,0,0,0,0,0,0
403,khas1269,kha,Khasi,KHASI,NA,upsid,aust1305,language,vulnerable,"24,977","91,9998",BD IN,Eurasia,South & Southeast Asia,16,0,0,0,0,0,0
412,khmu1256,kjg,Khmu,KHMU?,NA,upsid,aust1305,language,safe,"20,2463","101,671",CN LA MM TH VN,Eurasia,South & Southeast Asia,970,0,0,0,0,0,0
425,koho1244,kpm,Koho,SRE,NA,upsid,aust1305,language,safe,"11,6444","108,057",VN,Eurasia,South & Southeast Asia,896,0,0,0,0,0,0
259,lave1249,brb,Brao,BRAO,NA,upsid,aust1305,language,vulnerable,"14,5994","107,008",KH LA VN,Eurasia,South & Southeast Asia,657,0,0,0,0,0,0
602,mund1320,unr,Mundari,MUNDARI,NA,upsid,aust1305,language,safe,"25,0391","87,1792",BD IN NP,Eurasia,South & Southeast Asia,212,0,0,0,0,0,0
274,nyah1250,cbn,Nyahkur,NYAH KUR,NA,upsid,aust1305,language,definitely endangered,"15,8909","101,515",TH,Eurasia,South & Southeast Asia,549,0,0,0,0,0,0
511,paco1243,pac,Pacoh,PACOH,NA,upsid,aust1305,language,vulnerable,"16,3353","107,094",LA VN,Eurasia,South & Southeast Asia,908,0,0,0,0,0,0
520,para1301,prk,South Wa,PARAUK,NA,upsid,aust1305,language,severely endangered,"22,8658","99,375",CN MM,Eurasia,South & Southeast Asia,1878,0,0,0,0,0,0
535,seda1262,sed,Sedang,SEDANG,NA,upsid,aust1305,language,safe,"14,7793","108,027",LA VN,Eurasia,South & Southeast Asia,1274,0,0,0,0,0,0
605,viet1252,vie,Vietnamese,VIETNAMESE,NA,upsid,aust1305,language,safe,"20,681188","105,774071",CN LA VN,Eurasia,South & Southeast Asia,13,0,0,0,0,0,0
262,west2397,brv,Western Bru,BRUU,NA,upsid,aust1305,language,vulnerable,"16,4906","104,754",LA TH,Eurasia,South & Southeast Asia,145,0,0,0,0,0,0
562,atay1247,tay,Atayal,ATAYAL,NA,upsid,aust1307,language,vulnerable,"24,5209","121,388",TW,Papunesia,South & Southeast Asia,1891,1,0,1,0,0,0
241,bata1289,bbc,Batak Toba,BATAK,NA,upsid,aust1307,language,vulnerable,"2,35498","99,1761",ID,Papunesia,South & Southeast Asia,1079,1,1,0,0,0,0
522,paiw1248,pwn,Paiwan,PAIWAN,NA,upsid,aust1307,language,vulnerable,"22,3271","120,806",TW,Papunesia,South & Southeast Asia,589,1,0,1,0,0,0
517,plat1254,plt,Plateau Malagasy,MALAGASY,NA,upsid,aust1307,language,safe,"-19,5907","47,1211",MG,Africa,Africa,1733,0,0,0,0,0,0
200,adze1240,adz,Adzera,ADZERA,NA,upsid,aust1307,language,vulnerable,"-6,39394","146,294",PG,Papunesia,New Guinea,238,0,0,0,0,0,0
369,irar1238,irh,Irarutu,IRARUTU,NA,upsid,aust1307,language,vulnerable,"-2,94438","133,586",ID,Papunesia,New Guinea,1,0,0,0,0,0,0
529,waim1251,rro,Waima,RORO,NA,upsid,aust1307,language,safe,"-8,67145","146,544",PG,Papunesia,New Guinea,27,0,0,0,0,0,0
277,cham1312,cha,Chamorro,CHAMORRO,NA,upsid,aust1307,language,vulnerable,"13,438011","144,74474",GU MP,Papunesia,Oceania,103,0,0,0,0,0,0
328,fiji1243,fij,Fijian,FIJIAN,NA,upsid,aust1307,language,safe,-18,"178,33",FJ,Papunesia,Oceania,110,0,0,0,0,0,0
334,fwai1237,fwa,Fwâi,PO-AI,NA,upsid,aust1307,language,vulnerable,"-20,6873","164,901",NC,Papunesia,Oceania,272,0,0,0,0,0,0
352,hawa1245,haw,Hawaiian,HAWAIIAN,NA,upsid,aust1307,language,severely endangered,"19,6297","-155,43",US,Papunesia,Oceania,2013,0,0,0,0,0,0
363,iaai1238,iai,Iaai,IAI,NA,upsid,aust1307,language,vulnerable,"-20,6301","166,59",NC,Papunesia,Oceania,1,0,0,0,0,0,0
436,kwai1243,kwd,Kwaio,KWAIO,NA,upsid,aust1307,language,safe,"-8,93744","160,965",SB,Papunesia,Oceania,846,0,0,0,0,0,0
584,lena1238,tnl,Lenakel,LENAKEL,NA,upsid,aust1307,language,safe,"-19,4763","169,261",VU,Papunesia,Oceania,243,0,0,0,0,0,0
406,lusi1240,khl,Lusi,KALIAI,NA,upsid,aust1307,language,safe,"-5,55033","149,148",PG,Papunesia,Oceania,55,0,0,0,0,0,0
557,natu1246,ntu,Natügu,NAMBAKAENGO,NA,upsid,aust1307,language,safe,"-10,6771","165,835",SB,Papunesia,Oceania,1,0,0,0,0,0,0
519,pohn1238,pon,Pohnpeian,POHNPEIAN,NA,upsid,aust1307,language,safe,"6,87212","158,223",FM,Papunesia,Oceania,586,0,0,0,0,0,0
572,tiga1245,tgc,Tigak,TIGAK,NA,upsid,aust1307,language,safe,"-2,70951","150,893",PG,Papunesia,Oceania,6,0,0,0,0,0,0
364,iban1264,iba,Iban,IBAN,NA,upsid,aust1307,language,safe,"2,09041","112,934",BN ID MY,Papunesia,South & Southeast Asia,125,0,0,0,0,0,0
247,indo1317,bdl,Indonesian Bajau,SAMA,NA,upsid,aust1307,language,vulnerable,"-3,68664","122,253",ID,Papunesia,South & Southeast Asia,78,0,0,0,0,0,0
376,ivat1242,ivv,ivat1242,IVATAN,NA,upsid,aust1307,language,safe,"20,3848","121,975",PH,Eurasia,South & Southeast Asia,65,0,0,0,0,0,0
380,java1254,jav,Javanese,JAVANESE,NA,upsid,aust1307,language,safe,"-0,572307","110,885",ID MY,Papunesia,South & Southeast Asia,61,0,0,0,0,0,0
471,mara1404,mrw,Maranao,MARANAO,NA,upsid,aust1307,language,safe,"7,79414","124,175",PH,Papunesia,South & Southeast Asia,974,0,0,0,0,0,0
311,ruka1240,dru,Rukai,RUKAI,NA,upsid,aust1307,language,vulnerable,"22,7738","120,844",TW,Papunesia,South & Southeast Asia,1589,0,0,0,0,0,0
551,saba1265,snv,Sa'ban,SA'BAN,NA,upsid,aust1307,language,vulnerable,"3,58723","115,664",ID MY,Papunesia,South & Southeast Asia,983,0,0,0,0,0,0
573,taga1270,tgl,Tagalog,TAGALOG,NA,upsid,aust1307,language,safe,"14,06","121,747",PH,Papunesia,South & Southeast Asia,138,0,0,0,0,0,0
571,tetu1245,tet,Tetum,TETUN,NA,upsid,aust1307,language,safe,"-9,11217","125,528",ID TL,Papunesia,South & Southeast Asia,286,0,0,0,0,0,0
578,tiru1241,tiy,Tiruray,TIRURAY,NA,upsid,aust1307,language,safe,"6,77321","124,127",PH,Papunesia,South & Southeast Asia,477,0,0,0,0,0,0
593,tsou1248,tsu,Tsou,TSOU,NA,upsid,aust1307,language,definitely endangered,"23,216","120,787",TW,Papunesia,South & Southeast Asia,691,0,0,0,0,0,0
282,west2650,cja,Western Cham,CHAM,NA,upsid,aust1307,language,vulnerable,"12,4771","104,026",KH TH VN,Eurasia,South & Southeast Asia,26,0,0,0,0,0,0
385,jaqa1244,jqr,Jaqaru,JAQARU,NA,upsid,ayma1253,language,definitely endangered,"-12,8823","-75,8958",PE,South America,South America,2670,3,0,3,8,0,8
267,qaqe1238,byx,Qaqet,BAINING,NA,upsid,bain1263,language,definitely endangered,"-4,45258","151,702",PG,Papunesia,New Guinea,1085,0,0,0,0,0,0
273,chac1249,cbi,Cha'palaa,CAYAPA,NA,upsid,barb1265,language,definitely endangered,"0,71489","-79,0508",EC,South America,South America,168,0,0,0,0,0,0
347,guam1248,gum,Guambiano,GUAMBIANO,NA,upsid,barb1265,language,vulnerable,"2,55849","-76,582",CO,South America,South America,1782,0,0,0,0,0,0
291,chua1256,cqd,Chuanqiandian Cluster Miao,HMONG,NA,upsid,book1242,language,safe,"22,5638","101,95",CN,Eurasia,Northern Eurasia,1120,4,0,4,0,0,0
256,muin1242,bmr,Muinane,MUINANE,NA,upsid,bora1262,language,severely endangered,"-0,8652","-72,4249",CO,South America,South America,101,0,0,0,0,0,0
619,wari1266,wrs,Waris,WARIS,NA,upsid,bord1247,language,definitely endangered,"-3,139","140,931",ID PG,Papunesia,New Guinea,608,0,0,0,0,0,0
258,boro1282,bor,Bororo,BORORO,NA,upsid,boro1281,language,definitely endangered,"-16,6029","-55,2004",BR,South America,South America,269,0,0,0,0,0,0
611,wich1260,wic,Wichita,WICHITA,NA,upsid,cadd1255,language,extinct,"35,0665","-98,1831",US,North America,North America,378,0,0,0,3,0,3
269,cadd1256,cad,Caddo,CADDO,NA,upsid,cadd1255,language,critically endangered,"35,1826","-98,2634",US,North America,North America,81,0,0,0,4,0,4
381,jebe1250,jeb,Jebero,JEBERO,NA,upsid,cahu1265,language,critically endangered,"-5,40317","-76,4103",PE,South America,South America,326,0,0,0,0,0,0
209,akaw1239,ake,Akawaio,AKAWAIO,NA,upsid,cari1283,language,vulnerable,"6,16277","-60,862",BR GY VE,South America,South America,733,0,0,0,0,0,0
254,baka1277,bkq,Bakairí,BAKAIRI,NA,upsid,cari1283,language,definitely endangered,"-14,2628","-54,7034",BR,South America,South America,444,0,0,0,0,0,0
514,enap1235,pbh,Panare,PANARE,NA,upsid,cari1283,language,vulnerable,"6,95035","-65,8483",VE,South America,South America,423,0,0,0,0,0,0
272,gali1262,car,Galibi Carib,CARIB,NA,upsid,cari1283,language,definitely endangered,"5,83772","-56,8323",BR GF GY SR VE,South America,South America,1,0,0,0,0,0,0
355,hixk1239,hix,Hixkaryána,HIXKARYANA,NA,upsid,cari1283,language,definitely endangered,"-0,16265","-58,80153",BR,South America,South America,200,0,0,0,0,0,0
386,japr1238,jru,Japrería,JAPRERIA,NA,upsid,cari1283,language,severely endangered,"10,5523","-72,7101",VE,South America,South America,696,0,0,0,0,0,0
442,lugb1240,lgg,Lugbara,LUGBARA,NA,upsid,cent2225,language,safe,"3,02245","30,8642",CD UG,Africa,Africa,1213,0,0,0,0,0,0
643,yulu1243,yul,Yulu,YULU,NA,upsid,cent2225,language,definitely endangered,"8,04124","23,6166",CD CF SD,Africa,Africa,723,0,0,0,0,0,0
268,brib1243,bzd,Bribri,BRIBRI,NA,upsid,chib1249,language,definitely endangered,"9,39794","-83,0539",CR PA,North America,Middle America,623,0,0,0,0,0,0
512,pech1241,pay,Pech,PAYA,NA,upsid,chib1249,language,definitely endangered,"15,8033","-85,558",HN,North America,South & Southeast Asia,274,0,0,0,0,0,0
435,bord1248,kvn,Border Kuna,CUNA,NA,upsid,chib1249,language,vulnerable,"7,92993","-77,1664",CO PA,South America,South America,373,0,0,0,0,0,0
525,quil1240,qui,Quileute,QUILEUTE,NA,upsid,chim1311,language,extinct,"47,9106","-124,603",US,North America,North America,2,6,0,6,9,0,9
546,epen1239,sja,Epena,EPENA PEDEE,NA,upsid,choc1280,language,vulnerable,"4,25877","-77,3566",CO EC PA,South America,South America,2,0,0,0,0,0,0
567,tehu1242,teh,Tehuelche,TEHUELCHE,NA,upsid,chon1288,language,critically endangered,"-47,5796","-68,3235",AR,South America,South America,289,1,0,1,6,0,6
373,itel1242,itl,Itelmen,ITELMEN,NA,upsid,chuk1271,language,severely endangered,"56,7798","156,906",RU,Eurasia,Northern Eurasia,70,3,0,3,5,0,5
285,chuk1273,ckt,Chukchi,CHUKCHI,NA,upsid,chuk1271,language,definitely endangered,"68,6436","170,045",RU,Eurasia,Northern Eurasia,19,1,0,1,0,0,0
427,kory1246,kpy,Koryak,KORYAK,NA,upsid,chuk1271,language,definitely endangered,"63,8977","166,695",RU,Eurasia,Northern Eurasia,175,1,0,1,0,0,0
306,kumi1248,dih,Tipai,DIEGUENO,NA,upsid,coch1271,language,severely endangered,"32,331","-116,604",MX US,North America,Middle America,297,1,1,0,0,0,0
300,darf1239,daj,Dar Fur Daju,DAJU,NA,upsid,daju1249,language,safe,"12,2598","25,3127",SD,Africa,Africa,610,1,0,1,0,0,0
457,dizi1235,mdx,Dizin,DIZI,NA,upsid,dizo1235,language,safe,"6,1405","35,5763",ET,Africa,Africa,2402,0,0,0,4,0,4
313,toro1252,dts,Toro So Dogon,DOGON,NA,upsid,dogo1299,language,safe,"14,40749","-3,10006",ML,Africa,Africa,284,0,0,0,0,0,0
429,kuru1302,kru,Kurukh,KURUKH,NA,upsid,drav1251,language,vulnerable,"24,4644","86,4657",BD BT IN,Eurasia,South & Southeast Asia,288,1,0,1,0,0,0
261,brah1256,brh,Brahui,BRAHUI,NA,upsid,drav1251,language,vulnerable,"28,5347","64,2991",AF IR PK,Eurasia,South & Southeast Asia,2054,0,0,0,0,0,0
400,kota1263,kfe,Kota (India),KOTA,NA,upsid,drav1251,language,definitely endangered,"11,4978","76,9387",IN,Eurasia,South & Southeast Asia,1252,0,0,0,0,0,0
401,koya1251,kff,Koya,KOYA,NA,upsid,drav1251,language,safe,"17,6772","81,2096",IN,Eurasia,South & Southeast Asia,99,0,0,0,0,0,0
568,telu1262,tel,Telugu,TELUGU,NA,upsid,drav1251,language,safe,"16,4529","78,7024",IN,Eurasia,South & Southeast Asia,427,0,0,0,0,0,0
566,tulu1258,tcy,Tulu,TULU,NA,upsid,drav1251,language,vulnerable,"12,8114","75,2651",IN,Eurasia,South & Southeast Asia,22,0,0,0,0,0,0
564,gaam1241,tbi,Gaam,TABI,NA,upsid,east2386,language,safe,"11,4674","33,9797",SD,Africa,Africa,1051,0,0,0,0,0,0
213,aleu1260,ale,Aleut,ALEUT,NA,upsid,eski1264,language,definitely endangered,"52,1228","-174,29",RU US,North America,NA,78,3,0,3,0,0,0
388,kala1399,kal,Kalaallisut,INUIT,NA,upsid,eski1264,language,vulnerable,"69,3761","-52,864",GL,North America,NA,336,3,0,3,0,0,0
319,cent2128,ess,Central Siberian Yupik,YUPIK,NA,upsid,eski1264,language,definitely endangered,"63,4308","-170,272",RU US,Eurasia,Northern Eurasia,12,6,0,6,0,0,0
333,furr1244,fvr,Fur,FUR,NA,upsid,fura1235,language,safe,"12,0455","23,6401",CF SD TD,Africa,Africa,867,0,0,0,0,0,0
337,gara1269,wrk,Garrwa,GARAWA,NA,upsid,garr1260,language,severely endangered,"-17,4504","137,72014",AU,Australia,Australia,204,0,0,0,0,0,0
434,kuni1267,kup,Kunimaipa,KUNIMAIPA,NA,upsid,goil1242,language,safe,"-8,09371","146,908",PG,Papunesia,New Guinea,2184,1,0,1,0,0,0
343,dawr1236,dwr,Dawro,KULLO,NA,upsid,gong1255,language,safe,"6,95",37,ET,Africa,Africa,1951,0,0,0,3,0,3
394,kafa1242,kbr,Kafa,KEFA,NA,upsid,gong1255,language,safe,"7,34022","36,1718",ET,Africa,Africa,1747,0,0,0,4,1,3
227,apuc1241,apq,A-Pucikwar,ANDAMANESE,NA,upsid,grea1241,language,extinct,"12,241","92,7965",IN,Papunesia,South & Southeast Asia,1,0,0,0,0,0,0
346,guah1255,guh,Guahibo,GUAHIBO,NA,upsid,guah1252,language,vulnerable,"5,81736","-68,9839",CO VE,South America,South America,74,0,0,0,0,0,0
235,abip1241,axb,Abipon,ABIPON,NA,upsid,guai1249,language,extinct,-29,-61,AR,South America,South America,53,2,0,2,0,0,0
503,nung1290,nuy,Wubuy,NUNGGUBUYU,NA,upsid,gunw1250,language,definitely endangered,"-14,2623","135,753",AU,Australia,Australia,1,0,0,0,0,0,0
620,wara1290,wrz,Warray,WARAY,NA,upsid,gunw1250,language,critically endangered,"-13,0941","131,236",AU,Australia,Australia,145,0,0,0,0,0,0
353,nort2938,hdn,Northern Haida,HAIDA,NA,upsid,haid1248,language,critically endangered,"54,004532","-132,079257",CA US,North America,North America,91,8,0,8,8,0,8
465,moro1285,mor,Moro,MORO,NA,upsid,heib1242,language,vulnerable,"10,9194","30,2138",SD,Africa,Africa,743,0,0,0,0,0,0
375,iumi1238,ium,Iu Mien,MIEN,NA,upsid,hmon1336,language,safe,"20,83","101,17",CN LA MM TH VN,Eurasia,South & Southeast Asia,1124,0,0,0,0,0,0
361,sanm1287,huv,San Mateo del Mar Huave,HUAVE,NA,upsid,huav1256,language,vulnerable,"16,2129","-95,0077",MX,North America,Middle America,2,0,0,0,0,0,0
506,ocai1244,oca,Ocaina,OCAINA,NA,upsid,huit1251,language,critically endangered,"-2,159","-72,1422",CO PE,South America,South America,100,0,0,0,0,0,0
367,izon1238,ijc,Izon,KOLOKUMA IJO,NA,upsid,ijoi1239,language,safe,"5,17986","5,51702",NG,Africa,Africa,1,0,0,0,0,0,0
362,nucl1235,hye,Eastern Armenian,ARMENIAN,NA,upsid,indo1319,language,definitely endangered,40,45,AM AZ GE IR SY TR,Eurasia,Western Asia,1872,2,0,2,5,0,5
331,stan1290,fra,French,FRENCH,NA,upsid,indo1319,language,safe,48,2,AD BE CA CH FR GF IT LU MC PM US,Eurasia,Europe,129,1,0,1,0,0,0
304,stan1295,deu,German,GERMAN,NA,upsid,indo1319,language,safe,"48,649","12,4676",AT BE CH CZ DE DK FR HU IT LI LU NL PL RO SI SK,Eurasia,Europe,357,1,0,1,0,0,0
419,nort2641,kmr,Northern Kurdish,KURDISH,NA,upsid,indo1319,language,safe,37,43,AM AZ IQ IR JO KW SY TM TR,Eurasia,Western Asia,683,1,0,1,0,0,0
510,ormu1247,oru,Ormuri,ORMURI,NA,upsid,indo1319,language,definitely endangered,"32,6819","69,3444",AF PK,Eurasia,South & Southeast Asia,2253,2,0,2,0,0,0
521,cent1973,pst,Central Pashto,PASHTO,NA,upsid,indo1319,language,safe,"31,9153","69,4529",AF PK,Eurasia,South & Southeast Asia,1069,2,0,2,0,0,0
516,west2369,pes,Western Farsi,FARSI,NA,upsid,indo1319,language,safe,"28,6593","55,1586",AF AZ IQ IR TM TR,Eurasia,Western Asia,1293,2,0,2,0,0,0
354,hind1269,hin,Hindi,HINDI-URDU,NA,upsid,indo1319,language,safe,25,77,BD BT IN NP,Eurasia,South & Southeast Asia,398,3,3,0,0,0,0
260,bret1244,bre,Breton,BRETON,NA,upsid,indo1319,language,safe,"48,2452","-3,78934",FR,Eurasia,Europe,139,0,0,0,0,0,0
265,bulg1262,bul,Bulgarian,BULGARIAN,NA,upsid,indo1319,language,definitely endangered,"43,3646","25,047",BG GR MD MK RO RS TR UA,Eurasia,Europe,96,0,0,0,0,0,0
342,iris1253,gle,Irish,IRISH,NA,upsid,indo1319,language,definitely endangered,"53,2186","-7,61509",GB IE,Eurasia,Europe,78,0,0,0,0,0,0
444,lith1251,lit,Lithuanian,LITHUANIAN,NA,upsid,indo1319,language,safe,"55,1429","23,9601",BY LT LV PL RU,Eurasia,Europe,66,0,0,0,0,0,0
318,mode1248,ell,Modern Greek,GREEK,NA,upsid,indo1319,language,severely endangered,"42,3224","24,8699",AL BG CY EG GR IT MK RO TR UA,Eurasia,Europe,142,0,0,0,0,0,0
499,norw1259,nob,Norwegian Bokmål,NORWEGIAN,NA,upsid,indo1319,dialect,safe,"61,112","8,886",NO,Eurasia,Europe,631,0,0,0,0,0,0
527,roma1327,ron,Romanian,ROMANIAN,NA,upsid,indo1319,language,safe,"46,3913","24,2256",BG HU MD RO RS UA,Eurasia,Europe,313,0,0,0,0,0,0
530,russ1263,rus,Russian,RUSSIAN,NA,upsid,indo1319,language,critically endangered,59,50,BY CN EE FI GE KG KP KZ LT LV MD MN NO PL RO RU TM UA UZ,Eurasia,Europe,201,0,0,0,0,0,0
553,stan1288,spa,Spanish,SPANISH,NA,upsid,indo1319,language,safe,"40,4414","-1,11788",AD AR BO BR BZ CL CO CR CU DO EC ES FR GI GT GY HN HT MA MX NI PA PE PR PT PY SV US UY VE,Eurasia,Europe,1174,0,0,0,0,0,0
215,tosk1239,als,Northern Tosk Albanian,ALBANIAN,NA,upsid,indo1319,language,safe,41,20,AL GR MK,Eurasia,Europe,80,0,0,0,0,0,0
488,east1436,nep,Eastern Pahari,NEPALI,NA,upsid,indo1319,family,safe,"27,5947033333","87,6200833333",BN BT IN NP US,Eurasia,Northern Eurasia,NA,0,0,0,0,0,0
389,kash1277,kas,Kashmiri,KASHMIRI,NA,upsid,indo1319,language,safe,"34,166825","74,330455",IN PK,Eurasia,Northern Eurasia,1567,0,0,0,0,0,0
250,beng1280,ben,Bengali,BENGALI,NA,upsid,indo1319,language,safe,24,90,BD IN NP,Eurasia,South & Southeast Asia,19,0,0,0,0,0,0
422,konk1267,knn,Maharashtrian Konkani,KONKANI,NA,upsid,indo1319,language,safe,"19,2414","73,9166",IN,Eurasia,South & Southeast Asia,713,0,0,0,0,0,0
545,sinh1246,sin,Sinhala,SINHALESE,NA,upsid,indo1319,language,safe,8,81,LK,Eurasia,South & Southeast Asia,47,0,0,0,0,0,0
280,cher1273,chr,Cherokee,CHEROKEE,NA,upsid,iroq1247,language,vulnerable,"35,4664","-83,163",US,North America,North America,1144,0,0,0,0,0,0
536,sene1264,see,Seneca,SENECA,NA,upsid,iroq1247,language,critically endangered,"42,56","-77,53",CA US,North America,North America,445,0,0,0,0,0,0
467,maun1240,mph,Mawng,MAUNG,NA,upsid,iwai1246,language,vulnerable,"-11,8393","133,185",AU,Australia,Australia,1,0,0,0,0,0,0
384,nucl1643,jpn,Japanese,JAPANESE,NA,upsid,japo1237,language,safe,35,135,JP,Eurasia,Northern Eurasia,74,1,0,1,0,0,0
382,toll1241,jic,Tol,TOL,NA,upsid,jica1245,language,definitely endangered,"14,6686","-87,0372",HN,North America,Middle America,801,0,0,0,0,0,0
383,shua1257,jiv,Shuar,JIVARO,NA,upsid,jiva1245,language,vulnerable,"-3,45136","-78,1892",EC PE,South America,South America,953,0,0,0,0,0,0
548,sali1298,slc,Sáliba,SALIBA,NA,upsid,jodi1234,language,critically endangered,"5,30115","-69,3843",CO VE,South America,South America,99,0,0,0,0,0,0
627,katc1249,xtc,Katcha-Kadugli-Miri,KADUGLI,NA,upsid,kadu1256,language,vulnerable,"10,8423","29,4914",SD,Africa,Africa,470,0,0,0,0,0,0
275,cacu1241,cbv,Kakua,CACUA,NA,upsid,kaku1242,language,definitely endangered,"0,88778","-69,5659",CO,South America,South America,150,0,0,0,0,0,0
390,nucl1302,kat,Georgian,GEORGIAN,NA,upsid,kart1248,language,safe,"41,850397","43,78613",AM AZ GE IR RU TR,Eurasia,Europe,1439,3,0,3,6,0,6
211,qawa1238,alc,Qawasqar,QAWASQAR,NA,upsid,kawe1237,language,critically endangered,"-49,703","-75,3756",CL,South America,South America,544,0,0,0,3,0,3
413,west2632,kjq,Western Keres,ACOMA,NA,upsid,kere1287,language,definitely endangered,"34,9733","-107,517",US,North America,North America,1867,0,0,0,10,0,10
482,nama1264,naq,Nama (Namibia),NAMA,NA,upsid,khoe1240,language,vulnerable,"-25,0747","17,9767",BW NA ZA,Africa,Africa,1166,0,0,0,0,0,0
409,kiow1266,kio,Kiowa,KIOWA,NA,upsid,kiow1265,language,critically endangered,"34,9403","-98,9042",US,North America,North America,444,0,0,0,4,0,4
598,nort1550,twf,Taos Northern Tiwa,PICURIS,NA,upsid,kiow1265,language,definitely endangered,"36,4277","-105,604",US,North America,North America,2133,0,0,0,4,1,3
411,sout2949,kjd,Southern Kiwai,SOUTHERN KIWAI,NA,upsid,kiwa1251,language,safe,"-8,64889","143,244",PG,Papunesia,Oceania,41,0,0,0,0,0,0
393,gras1249,kbk,Grass Koiari,KOIARI,NA,upsid,koia1260,language,definitely endangered,"-9,51218","147,437",PG,Papunesia,New Guinea,735,0,0,0,0,0,0
625,komo1258,xom,Komo (Sudan),KOMA,NA,upsid,koma1264,language,definitely endangered,"8,94162","34,0939",ET SD,Africa,Africa,1006,0,0,0,4,0,4
423,kore1280,kor,Korean,KOREAN,NA,upsid,kore1284,language,safe,"37,5",128,CN KP KR RU,Eurasia,South & Southeast Asia,141,0,0,0,0,0,0
368,ikkk1242,ikx,Ik,IK,NA,upsid,kuli1252,language,vulnerable,"3,61407","34,2507",KE UG,Africa,Africa,1757,0,0,0,3,0,3
505,nyan1313,nyp,Nyang'i,NYANGI,NA,upsid,kuli1252,language,critically endangered,"3,4997","33,73651",UG,Africa,Africa,1367,0,0,0,0,0,0
432,juho1239,ktz,South-Eastern Ju,!XU,NA,upsid,kxaa1236,language,vulnerable,"-19,688","20,7673",BW NA,Africa,Africa,1157,0,0,0,9,0,9
456,maba1277,mde,Maba (Chad),MABA,NA,upsid,maba1274,language,safe,"12,89147","20,8889",TD,Africa,Africa,504,0,0,0,0,0,0
498,nort2952,nmu,Northeast Maidu,MAIDU,NA,upsid,maid1262,language,extinct,"40,4102","-120,645",US,North America,North America,1271,0,0,0,4,0,4
238,bamb1269,bam,Bambara,BAMBARA,NA,upsid,mand1469,language,safe,"12,0401","-9,98949",CI GN ML SN,Africa,Africa,400,0,0,0,0,0,0
253,biss1248,bib,Bissa,BISA,NA,upsid,mand1469,language,safe,"10,4257","-1,67332",BF CI GH TG,Africa,Africa,237,0,0,0,0,0,0
298,dann1241,daf,Dan,DAN,NA,upsid,mand1469,language,safe,"7,22812","-8,24535",CI GN LR,Africa,Africa,282,0,0,0,0,0,0
626,libe1247,xpe,Liberia Kpelle,KPELLE,NA,upsid,mand1469,language,safe,"6,92048","-9,96128",GN LR,Africa,Africa,303,0,0,0,0,0,0
243,nort2819,bbo,Northern Bobo Madaré,BOBO-FING,NA,upsid,mand1469,language,safe,"12,4182","-4,47538",BF ML,Africa,Africa,441,0,0,0,0,0,0
214,alaw1244,alh,Alawa,ALAWA,NA,upsid,mang1423,language,critically endangered,"-15,5458","134,282",AU,Australia,Australia,125,0,0,0,0,0,0
266,bura1267,bvr,Burarra,BURARRA,NA,upsid,mani1293,language,definitely endangered,"-12,3061","134,365",AU,Australia,Australia,8,0,0,0,0,0,0
270,niva1238,cag,Nivaclé,ASHUSLAY,NA,upsid,mata1289,language,definitely endangered,"-22,8557","-61,7606",AR BO PY,South America,South America,203,0,0,0,0,0,0
397,kekc1242,kek,Kekchí,K'EKCHI,NA,upsid,maya1287,language,vulnerable,"15,3788","-89,2452",BZ GT SV,North America,Middle America,34,2,0,2,5,0,5
378,popt1235,jac,Popti',JACALTEC,NA,upsid,maya1287,language,vulnerable,"15,6609","-91,6633",GT,North America,Middle America,2301,2,0,2,5,0,5
360,huas1242,hus,Huastec,HUASTECO,NA,upsid,maya1287,language,definitely endangered,"21,6153","-98,5028",MX,North America,Middle America,88,0,0,0,5,0,5
600,tzel1254,tzh,Tzeltal,TZELTAL,NA,upsid,maya1287,language,safe,"16,6384","-92,2786",MX,North America,Middle America,2101,0,0,0,5,0,5
640,yuca1254,yua,Yucatec Maya,YUCATEC,NA,upsid,maya1287,language,safe,"18,7757","-88,9567",BZ GT MX,North America,Middle America,73,0,0,0,5,0,5
547,sout2985,skd,Southern Sierra Miwok,SIERRA MIWOK,NA,upsid,miwo1274,language,critically endangered,"38,2363","-120,507",US,North America,North America,753,0,0,0,0,0,0
646,copa1236,zoc,Copainalá Zoque,ZOQUE,NA,upsid,mixe1284,language,definitely endangered,"17,2157","-93,3183",MX,North America,Middle America,500,0,0,0,0,0,0
472,toto1305,mto,Totontepec Mixe,MIXE,NA,upsid,mixe1284,language,definitely endangered,"17,2157","-96,0179",MX,North America,Middle America,1800,0,0,0,0,0,0
459,mogh1245,mhj,Mogholi,MOGHOL,NA,upsid,mong1329,language,extinct,"34,2504","62,2802",AF,Eurasia,Northern Eurasia,946,2,0,2,0,0,0
462,tuuu1240,mjg,Tu,MONGUOR,NA,upsid,mong1329,language,vulnerable,"36,8177","102,117",CN,Eurasia,Northern Eurasia,2780,2,0,2,0,0,0
312,daur1238,dta,Dagur,DAGUR,NA,upsid,mong1329,language,definitely endangered,48,124,CN KZ MN,Eurasia,Northern Eurasia,153,0,0,0,0,0,0
405,halh1238,khk,Halh Mongolian,KHALKHA,NA,upsid,mong1329,language,definitely endangered,"48,324","106,289",MN RU,Eurasia,Northern Eurasia,1239,0,0,0,0,0,0
210,alab1237,akz,Alabama,ALABAMA,NA,upsid,musk1252,language,definitely endangered,"30,76738","-94,62848",US,North America,North America,95,0,0,0,0,0,0
242,bats1242,bbl,Bats,BATS,NA,upsid,nakh1245,language,severely endangered,"42,1806","45,344",GE,Eurasia,Europe,1009,4,0,4,6,0,6
233,avar1256,ava,Avar,AVAR,NA,upsid,nakh1245,language,vulnerable,"41,7047","46,558",AZ GE RU TR,Eurasia,Europe,734,4,0,4,10,0,10
440,lakk1252,lbe,Lak,LAK,NA,upsid,nakh1245,language,vulnerable,"42,1328","47,0809",AZ GE KZ RU UA,Eurasia,Europe,1957,12,0,12,10,0,10
531,rutu1240,rut,Rutul,RUTUL,NA,upsid,nakh1245,language,vulnerable,"41,6187","47,3244",AZ RU,Eurasia,Europe,1962,20,0,20,12,2,10
228,arch1244,aqc,Archi,ARCHI,NA,upsid,nakh1245,language,definitely endangered,"42,3239","46,8267",RU,Eurasia,Europe,1797,22,0,22,17,3,14
480,sout2994,nab,Southern Nambikuára,SOUTHERN NAMBIQUARA,NA,upsid,namb1299,language,definitely endangered,"-14,3707","-59,5187",BR,South America,South America,686,0,0,0,4,0,4
580,talo1250,tlo,Tasomi-Tata,JOMANG,NA,upsid,narr1279,language,definitely endangered,"10,6453","30,4815",SD,Africa,Africa,478,0,0,0,0,0,0
428,kups1238,kpz,Kupsabiny,SEBEI,NA,upsid,nilo1247,language,safe,"1,33197","34,5991",KE UG,Africa,Africa,2579,0,0,0,0,0,0
448,luok1236,luo,Luo (Kenya and Tanzania),LUO,NA,upsid,nilo1247,language,safe,"-0,93296","34,4896",KE TZ,Africa,Africa,1463,0,0,0,0,0,0
451,masa1300,mas,Masai,MAASAI,NA,upsid,nilo1247,language,extinct,"-3,1419","36,4573",KE TZ,Africa,Africa,1222,0,0,0,0,0,0
307,nort2815,dip,Northeastern Dinka,DINKA,NA,upsid,nilo1247,language,safe,"9,27995","31,8392",SD,Africa,Africa,286,0,0,0,0,0,0
495,nucl1633,nir,Nimboran,NIMBORAN,NA,upsid,nimb1257,language,severely endangered,"-2,5803","140,179",ID,Papunesia,New Guinea,198,0,0,0,0,0,0
466,mull1237,mpb,Mullukmulluk,MALAKMALAK,NA,upsid,nort1547,language,critically endangered,"-13,2973","130,615",AU,Australia,Australia,98,0,0,0,0,0,0
469,west2600,mqs,West Makian,WEST MAKIAN,NA,upsid,nort2923,language,vulnerable,"0,45332","127,63",ID,Papunesia,South & Southeast Asia,198,0,0,0,0,0,0
528,roto1249,roo,Rotokas,ROTOKAS,NA,upsid,nort2933,language,safe,"-5,94339","155,154",PG,Papunesia,New Guinea,305,0,0,0,0,0,0
327,nobi1240,fia,Nobiin,NUBIAN,NA,upsid,nubi1251,language,vulnerable,"22,8142","31,8376",EG SD,Africa,Africa,261,0,0,0,0,0,0
589,toar1246,tqo,Toaripi,TAORIPI,NA,upsid,nucl1580,language,safe,"-8,07231","146,206",PG,Papunesia,New Guinea,52,0,0,0,0,0,0
202,amel1241,aey,Amele,AMELE,NA,upsid,nucl1709,language,vulnerable,"-5,29126","145,687",PG,Papunesia,New Guinea,34,0,0,0,0,0,0
284,chua1250,cjv,Chuave,CHUAVE,NA,upsid,nucl1709,language,safe,"-6,17824","145,139",PG,Papunesia,New Guinea,2097,0,0,0,0,0,0
414,east2516,kjs,East Kewa,KEWA,NA,upsid,nucl1709,language,safe,"-6,32989","143,931",PG,Papunesia,New Guinea,1853,0,0,0,0,0,0
317,ekar1243,ekg,Ekari,EKARI,NA,upsid,nucl1709,language,safe,"-3,88974","136,018",ID,Papunesia,New Guinea,1658,0,0,0,0,0,0
336,gads1258,gaj,Gadsup,GADSUP,NA,upsid,nucl1709,language,safe,"-6,31631","145,997",PG,Papunesia,New Guinea,1215,0,0,0,0,0,0
308,lowe1415,dni,Lower Grand Valley Dani,DANI,NA,upsid,nucl1709,language,safe,"-4,25684","138,992",ID,Papunesia,New Guinea,1941,0,0,0,0,0,0
610,nucl1620,wgi,Wahgi,WAHGI,NA,upsid,nucl1709,language,safe,"-6,11629","144,665",PG,Papunesia,New Guinea,2046,0,0,0,0,0,0
554,sele1250,spl,Selepet,SELEPET,NA,upsid,nucl1709,language,safe,"-6,03532","147,234",PG,Papunesia,New Guinea,812,0,0,0,0,0,0
558,suen1241,sue,Suena,SUENA,NA,upsid,nucl1709,language,definitely endangered,"-7,76339","147,534",PG,Papunesia,New Guinea,188,0,0,0,0,0,0
582,tamn1235,tml,Tamnim Citak,ASMAT,NA,upsid,nucl1709,language,safe,"-5,57962","139,233",ID,Papunesia,New Guinea,1,0,0,0,0,0,0
615,want1252,wnc,Wantoat,WANTOAT,NA,upsid,nucl1709,language,definitely endangered,"-6,15216","146,513",PG,Papunesia,New Guinea,1566,0,0,0,0,0,0
632,yaga1260,ygr,Yagaria,YAGARIA,NA,upsid,nucl1709,language,safe,"-6,32432","145,388",PG,Papunesia,New Guinea,1681,0,0,0,0,0,0
616,usan1239,wnu,Usan,USAN,NA,upsid,nucl1709,language,safe,"-4,84265","145,362",PG,Papunesia,South & Southeast Asia,673,0,0,0,0,0,0
226,apin1244,apn,Apinayé,APINAYE,NA,upsid,nucl1710,language,definitely endangered,"-6,10774","-47,6315",BR,South America,South America,200,0,0,0,0,0,0
402,kain1272,kgp,Kaingang,KAINGANG,NA,upsid,nucl1710,language,vulnerable,"-27,7671","-52,5394",BR,South America,South America,638,0,0,0,0,0,0
453,maxa1247,mbl,Maxakalí,MAXAKALI,NA,upsid,nucl1710,language,definitely endangered,"-16,9402","-40,7891",BR,South America,South America,359,0,0,0,0,0,0
504,amas1236,nyi,Ama (Sudan),NYIMANG,NA,upsid,nyim1244,language,safe,"12,0993","29,4332",SD,Africa,Africa,688,0,0,0,0,0,0
245,bard1255,bcj,Bardi,BARDI,NA,upsid,nyul1248,language,critically endangered,"-16,6274","122,906",AU,Australia,Australia,5,0,0,0,0,0,0
452,cent2144,maz,Central Mazahua,MAZAHUA,NA,upsid,otom1299,language,definitely endangered,"19,7357","-100,018",MX,North America,Middle America,2897,0,0,0,6,0,6
587,acat1239,tpx,Acatepec Me'phaa,TLAPANEC,NA,upsid,otom1299,language,safe,"17,1034","-99,0602",MX,North America,Middle America,600,0,0,0,0,0,0
450,chiq1250,maq,Chiquihuitlán Mazatec,MAZATEC,NA,upsid,otom1299,language,definitely endangered,"18,0541","-96,6659",MX,North America,Middle America,1900,0,0,0,0,0,0
222,guer1243,amu,Guerrero Amuzgo,AMUZGO,NA,upsid,otom1299,language,vulnerable,"16,77226","-98,18953",MX,North America,Middle America,419,0,0,0,0,0,0
279,quio1240,chq,Quiotepec Chinantec,HIGHLAND CHINANTEC,NA,upsid,otom1299,language,vulnerable,"17,5621","-96,602",MX,North America,Middle America,1358,0,0,0,0,0,0
461,sanm1295,mig,San Miguel El Grande Mixtec,MIXTEC,NA,upsid,otom1299,language,vulnerable,"17,0777","-97,5432",MX,North America,Middle America,2431,0,0,0,0,0,0
294,west2644,ctp,Western Highland Chatino,CHATINO,NA,upsid,otom1299,language,vulnerable,"16,2495","-97,3244",MX,North America,Middle America,1313,0,0,0,0,0,0
199,achu1247,acv,Achumawi,ACHUMAWI,NA,upsid,pala1350,language,critically endangered,"41,0979","-121,191",US,North America,North America,1250,2,0,2,0,0,0
225,anta1253,ant,Antakarinya,WESTERN DESERT,NA,upsid,pama1250,language,severely endangered,"-27,1152","134,838",AU,Australia,Australia,206,0,0,0,0,0,0
314,dhuw1249,duj,Dhuwal,YOLNGU,NA,upsid,pama1250,language,definitely endangered,"-12,7825","136,008",AU,Australia,Australia,73,0,0,0,0,0,0
305,dier1241,dif,Dieri,DIYARI,NA,upsid,pama1250,language,severely endangered,"-28,1667",138,AU,Australia,Australia,65,0,0,0,0,0,0
303,dyir1250,dbl,Dyirbal,DYIRBAL,NA,upsid,pama1250,language,severely endangered,"-17,4516","145,544",AU,Australia,Australia,845,0,0,0,0,0,0
201,east2379,aer,Eastern Arrernte,ARRERNTE,NA,upsid,pama1250,language,definitely endangered,"-23,3583","135,046",AU,Australia,Australia,623,0,0,0,0,0,0
475,kala1377,mwp,Kala Lagaw Ya,KALA LAGAW YA,NA,upsid,pama1250,language,definitely endangered,"-10,6748","142,196",AU,Australia,Australia,152,0,0,0,0,0,0
431,kalk1246,ktg,Kalkutung,KALKATUNGU,NA,upsid,pama1250,language,extinct,-21,"139,5",AU,Australia,Australia,413,0,0,0,0,0,0
349,kuku1273,gvn,Kuku-Yalanji,GUGU-YALANDYI,NA,upsid,pama1250,language,definitely endangered,"-16,0036","145,188",AU,Australia,Australia,259,0,0,0,0,0,0
606,mbab1239,vmb,Mbabaram,MBABARAM,NA,upsid,pama1250,language,extinct,"-20,1389","143,438",AU,Australia,Australia,403,0,0,0,0,0,0
248,twee1234,xjb,Tweed-Albert,BANDJALANG,NA,upsid,pama1250,language,safe,"-28,028726","153,286993",AU,Australia,Australia,173,0,0,0,0,0,0
623,wang1291,wyb,Ngiyambaa,NGIYAMBAA,NA,upsid,pama1250,language,critically endangered,"-30,6481","146,18",AU,Australia,Australia,202,0,0,0,0,0,0
612,wikm1247,wim,Wik-Mungkan,WIK-MUNKAN,NA,upsid,pama1250,language,definitely endangered,"-13,98051","141,81611",AU,Australia,Australia,16,0,0,0,0,0,0
379,yany1243,jao,Yanyuwa,YANYUWA,NA,upsid,pama1250,language,severely endangered,"-15,7621","136,055",AU,Australia,Australia,40,0,0,0,0,0,0
633,yidi1250,yii,Yidiñ,YIDINY,NA,upsid,pama1250,language,severely endangered,"-17,1332","145,876",AU,Australia,Australia,273,0,0,0,0,0,0
216,amah1246,amc,Amahuaca,AMAHUACA,NA,upsid,pano1259,language,severely endangered,"-10,2012","-72,3208",BR PE,South America,South America,407,0,0,0,0,0,0
583,taca1256,tna,Tacana,TACANA,NA,upsid,pano1259,language,definitely endangered,"-13,39249","-68,04056",BO,South America,South America,200,0,0,0,0,0,0
628,yagu1244,yad,Yagua,YAGUA,NA,upsid,peba1241,language,definitely endangered,"-3,42913","-72,2186",CO PE,South America,South America,100,0,0,0,0,0,0
518,sout2982,pom,Southeastern Pomo,POMO,NA,upsid,pomo1273,language,extinct,"38,9354","-122,599",US,North America,North America,467,3,0,3,6,0,6
524,sout2991,quh,South Bolivian Quechua,QUECHUA,NA,upsid,quec1387,language,safe,"-20,9201","-66,3331",AR BO CL,South America,South America,4105,3,0,3,5,0,5
490,nezp1238,nez,Nez Perce,NEZ PERCE,NA,upsid,saha1239,language,critically endangered,"46,3073","-116,408",US,North America,North America,1029,2,0,2,5,0,5
421,cent2050,knc,Central Kanuri,KANURI,NA,upsid,saha1256,language,safe,"11,8863","16,3918",CM NE NG SD TD,Africa,Africa,317,0,0,0,0,0,0
255,bell1243,blc,Bella Coola,BELLA COOLA,NA,upsid,sali1255,language,critically endangered,"52,3448","-126,689",CA,North America,North America,767,6,0,6,8,0,8
449,lush1252,lut,Northern Lushootseed,LUSHOOTSEED,NA,upsid,sali1255,language,critically endangered,"48,42","-122,529",US,North America,North America,85,6,0,6,9,0,9
283,uppe1439,cjh,Upper Chehalis,UPPER CHEHALIS,NA,upsid,sali1255,language,extinct,"46,7981","-123,169",US,North America,North America,46,6,0,6,9,1,8
543,shus1248,shs,Shuswap,SHUSWAP,NA,upsid,sali1255,language,definitely endangered,"50,8734","-119,667",CA,North America,North America,697,9,0,9,0,0,0
395,dera1245,kbv,Dera (Indonesia),DERA,NA,upsid,sena1264,language,definitely endangered,"-3,52309","140,947",ID PG,Papunesia,New Guinea,411,0,0,0,0,0,0
540,nucl1632,set,Sentani,SENTANI,NA,upsid,sent1261,language,safe,"-2,6013","140,512",ID,Papunesia,New Guinea,249,0,0,0,0,0,0
221,alam1246,amp,Alamblak,ALAMBLAK,NA,upsid,sepi1257,language,definitely endangered,"-4,66307","143,316",PG,Papunesia,New Guinea,290,0,0,0,0,0,0
377,iwam1256,iwm,Iwam,IWAM,NA,upsid,sepi1257,language,definitely endangered,"-4,27346","141,817",PG,Papunesia,New Guinea,72,0,0,0,0,0,0
418,kwom1262,kmo,Kwoma,KWOMA,NA,upsid,sepi1257,language,definitely endangered,"-4,08721","142,664",PG,Papunesia,New Guinea,57,0,0,0,0,0,0
639,yess1239,yss,Yessan-Mayo,YESSAN-MAYO,NA,upsid,sepi1257,language,definitely endangered,"-4,15721","142,574",PG,Papunesia,New Guinea,42,0,0,0,0,0,0
544,shas1239,sht,Shasta,SHASTA,NA,upsid,shas1238,language,extinct,"41,7587","-122,738",US,North America,North America,973,0,0,0,4,0,4
286,mand1415,cmn,Mandarin Chinese,MANDARIN,NA,upsid,sino1245,language,safe,"40,0209","116,228",CN KP LA MM MN RU TW VN,Eurasia,Northern Eurasia,52,1,0,1,0,0,0
485,naxi1245,nxq,Naxi,NAXI,NA,upsid,sino1245,language,safe,"27,5",100,CN,Eurasia,Northern Eurasia,3640,1,0,1,0,0,0
287,haka1240,cnh,Haka Chin,LAI,NA,upsid,sino1245,language,definitely endangered,"22,8735","92,8208",BD IN MM,Eurasia,South & Southeast Asia,763,2,0,2,0,0,0
443,lahu1253,lhu,Lahu,LAHU,NA,upsid,sino1245,language,safe,"21,2701","100,214",CN LA MM TH VN,Eurasia,South & Southeast Asia,1536,2,0,2,0,0,0
293,tedi1235,ctd,Tedim Chin,TIDDIM CHIN,NA,upsid,sino1245,language,safe,"23,6079","93,519",IN MM,Eurasia,South & Southeast Asia,1341,0,0,0,0,0,0
244,cent2004,bca,Central Bai,BAI,NA,upsid,sino1245,language,safe,"26,1666","99,7052",CN,Eurasia,Northern Eurasia,3200,0,0,0,0,0,0
561,east2347,taj,Eastern Tamang,TAMANG,NA,upsid,sino1245,language,vulnerable,"27,3239","87,0832",IN NP,Eurasia,Northern Eurasia,1707,0,0,0,0,0,0
350,hakk1236,hak,Hakka Chinese,HAKKA,NA,upsid,sino1245,language,safe,25,116,CN TW,Eurasia,Northern Eurasia,393,0,0,0,0,0,0
276,mind1253,cdo,Min Dong Chinese,FUZHOU,NA,upsid,sino1245,language,safe,26,"119,5",CN,Eurasia,Northern Eurasia,12,0,0,0,0,0,0
481,minn1241,nan,Min Nan Chinese,XIAMEN,NA,upsid,sino1245,language,safe,"24,5","118,17",CN TW,Eurasia,Northern Eurasia,20,0,0,0,0,0,0
489,newa1246,new,Kathmandu Valley Newari,NEWARI,NA,upsid,sino1245,language,definitely endangered,"27,2614","84,9577",IN NP,Eurasia,Northern Eurasia,285,0,0,0,0,0,0
302,nyis1236,njz,Nyishi-Hill Miri,DAFLA,NA,upsid,sino1245,language,definitely endangered,"27,278263","93,675529",IN,Eurasia,Northern Eurasia,1134,0,0,0,0,0,0
622,wuch1236,wuu,Wu Chinese,CHANGZHOU,NA,upsid,sino1245,language,safe,"29,8621","119,682",CN,Eurasia,Northern Eurasia,102,0,0,0,0,0,0
642,yuec1235,yue,Yue Chinese,TAISHAN,NA,upsid,sino1245,language,safe,23,113,CN VN,Eurasia,Northern Eurasia,21,0,0,0,0,0,0
497,aona1235,njo,Ao Naga,AO,NA,upsid,sino1245,language,vulnerable,"26,3241","94,3824",IN,Eurasia,South & Southeast Asia,613,0,0,0,0,0,0
263,bodo1269,brx,Bodo-Mech,BODO,NA,upsid,sino1245,language,vulnerable,"26,725455","89,333235",IN NP,Eurasia,South & Southeast Asia,74,0,0,0,0,0,0
387,kach1280,kac,Southern Jinghpaw,JINGPHO,NA,upsid,sino1245,language,safe,"25,4634","97,3278",CN MM,Eurasia,South & Southeast Asia,225,0,0,0,0,0,0
476,nucl1310,mya,Burmese,BURMESE,NA,upsid,sino1245,language,definitely endangered,"20,7926","93,9665",BD MM TH,Eurasia,South & Southeast Asia,699,0,0,0,0,0,0
523,pwon1235,pww,Pwo Northern Karen,PHLONG,NA,upsid,sino1245,language,safe,"18,016","98,2709",MM TH,Eurasia,South & Southeast Asia,1004,0,0,0,0,0,0
430,sgaw1245,ksw,S'gaw Karen,KAREN,NA,upsid,sino1245,language,safe,"17,9872","97,7126",MM TH,Eurasia,South & Southeast Asia,224,0,0,0,0,0,0
445,lako1247,lkt,Lakota,DAKOTA,NA,upsid,siou1252,language,definitely endangered,"46,3699","-103,95",CA US,North America,North America,901,0,0,0,7,0,7
604,vani1248,vam,Vanimo,VANIMO,NA,upsid,skoo1245,language,vulnerable,"-2,68501","141,258",PG,Papunesia,New Guinea,174,0,0,0,0,0,0
539,koyr1242,ses,Koyraboro Senni Songhai,SONGHAI,NA,upsid,song1307,language,safe,"16,9634","-0,55187",ML NE,Africa,Africa,235,0,0,0,0,0,0
474,murr1258,mwf,Murriny Patha,MURINHPATHA,NA,upsid,sout2772,language,definitely endangered,"-14,74852","129,70152",AU,Australia,Australia,1,0,0,0,0,0,0
218,hame1242,amf,Hamer-Banna,HAMER,NA,upsid,sout2845,language,vulnerable,"5,06515","36,5176",ET KE,Africa,Africa,1056,1,0,1,1,0,1
483,naas1242,nas,Naasioi,NASIOI,NA,upsid,sout2948,language,safe,"-6,46022","155,632",PG,Papunesia,Oceania,1642,0,0,0,0,0,0
473,murl1244,mur,Murle,MURSI,NA,upsid,surm1244,language,vulnerable,"6,69756","33,988",ET SD,Africa,Africa,445,0,0,0,0,0,0
309,nort2735,doc,Northern Dong,KAM,NA,upsid,taik1256,language,vulnerable,"26,9944","109,204",CN VN,Eurasia,Northern Eurasia,480,1,0,1,0,0,0
340,qaua1234,gqu,Central Gelao-Qau,GELAO,NA,upsid,taik1256,language,severely endangered,"26,155438","106,16455",CN,Eurasia,Northern Eurasia,1272,2,0,2,0,0,0
560,suii1243,swi,Sui,SUI,NA,upsid,taik1256,language,safe,"24,0488","106,563",CN VN,Eurasia,Northern Eurasia,300,3,0,3,0,0,0
515,bouy1240,pcc,Bouyei,YAY,NA,upsid,taik1256,language,safe,"24,8484","106,187",CN VN,Eurasia,Northern Eurasia,766,0,0,0,0,0,0
439,lakk1238,lbc,Lakkia,LAKKIA,NA,upsid,taik1256,language,definitely endangered,"24,1169","110,106",CN,Eurasia,Northern Eurasia,981,0,0,0,0,0,0
404,luuu1242,khb,Lü,LUE,NA,upsid,taik1256,language,safe,"21,0321","101,282",CN LA MM TH VN,Eurasia,South & Southeast Asia,1045,0,0,0,0,0,0
502,nung1283,nut,Nung (Viet Nam),LUNGCHOW,NA,upsid,taik1256,language,safe,"20,8965","104,286",CN LA VN,Eurasia,South & Southeast Asia,723,0,0,0,0,0,0
574,thai1261,tha,Thai,THAI,NA,upsid,taik1256,language,safe,"14,192","100,671",KH MM TH,Eurasia,South & Southeast Asia,8,0,0,0,0,0,0
581,tama1331,tma,Tama (Chad),TAMA,NA,upsid,tama1329,language,safe,"14,332","21,9951",SD TD,Africa,Africa,1037,0,0,0,0,0,0
594,pure1242,tsz,Purepecha,TARASCAN,NA,upsid,tara1323,language,definitely endangered,"19,2467","-101,631",MX US,North America,Middle America,2285,0,0,0,0,0,0
468,dadi1250,mps,Dadibi,DADIBI,NA,upsid,tebe1251,language,safe,"-6,65765","144,511",PG,Papunesia,New Guinea,803,0,0,0,0,0,0
570,nucl1339,teq,Temein,TEMEIN,NA,upsid,teme1251,language,vulnerable,"11,8275","29,3898",SD,Africa,Africa,714,0,0,0,0,0,0
565,ticu1245,tca,Ticuna,TICUNA,NA,upsid,ticu1244,language,vulnerable,"-3,66289","-69,8723",BR CO PE,South America,South America,100,0,0,0,0,0,0
617,kama1365,woi,Kamang,WOISIKA,NA,upsid,timo1261,language,definitely endangered,"-8,26897","124,792",ID,Papunesia,South & Southeast Asia,1096,0,0,0,0,0,0
585,papa1238,top,Papantla Totonac,TOTONAC,NA,upsid,toto1251,language,safe,"20,5671","-97,2554",MX,North America,Middle America,52,1,0,1,0,0,0
592,nucl1649,tsi,Southern-Coastal Tsimshian,TSIMSHIAN,NA,upsid,tsim1258,language,critically endangered,"52,59103","-128,544545",CA US,North America,North America,457,4,0,4,7,0,7
295,cube1242,cub,Cubeo,CUBEO,NA,upsid,tuca1253,language,definitely endangered,"1,32382","-70,1939",BR CO VE,South America,South America,169,0,0,0,0,0,0
550,sion1247,snn,Siona-Tetete,SIONA,NA,upsid,tuca1253,language,definitely endangered,"0,31733","-76,0237",CO EC,South America,South America,291,0,0,0,0,0,0
239,waim1255,bao,Waimaha,BARASANO,NA,upsid,tuca1253,language,definitely endangered,"0,30416","-70,1644",BR CO,South America,South America,207,0,0,0,0,0,0
322,even1260,eve,Even,EVEN,NA,upsid,tung1282,language,severely endangered,"70,6687","130,914",RU,Eurasia,Northern Eurasia,156,0,0,0,0,0,0
463,manc1252,mnc,Manchu,MANCHU,NA,upsid,tung1282,language,critically endangered,"47,3122","126,557",CN RU,Eurasia,Northern Eurasia,192,0,0,0,0,0,0
341,nana1257,gld,Nanai,NANAI,NA,upsid,tung1282,language,definitely endangered,"48,4343","134,797",CN RU,Eurasia,Northern Eurasia,43,0,0,0,0,0,0
348,ache1246,guq,Aché,ACHE,NA,upsid,tupi1275,language,severely endangered,"-25,5865","-56,4697",PY,South America,South America,131,0,0,0,0,0,0
345,para1311,gug,Paraguayan Guaraní,GUARANI,NA,upsid,tupi1275,language,safe,"-25,60551","-57,08816",AR PY,South America,South America,328,0,0,0,0,0,0
556,siri1273,srq,Sirionó,SIRIONO,NA,upsid,tupi1275,language,critically endangered,"-15,5298","-63,9688",BO,South America,South America,163,0,0,0,0,0,0
237,bash1264,bak,Bashkir,BASHKIR,NA,upsid,turk1311,language,vulnerable,"53,5967","56,5594",KZ RU UA,Eurasia,Europe,163,2,0,2,0,0,0
410,kirg1245,kir,Kirghiz,KIRGHIZ,NA,upsid,turk1311,language,safe,42,74,AF CN KG KZ TJ UZ,Eurasia,Northern Eurasia,3648,2,0,2,0,0,0
603,nort2690,uzn,Northern Uzbek,UZBEK,NA,upsid,turk1311,language,safe,"43,7489","59,231",AF CN KG KZ TJ TM UZ,Eurasia,Northern Eurasia,366,3,0,3,0,0,0
281,chuv1255,chv,Chuvash,CHUVASH,NA,upsid,turk1311,language,vulnerable,"55,487","47,163",EE KZ RU,Eurasia,Europe,107,0,0,0,0,0,0
599,tuvi1240,tyv,Tuvinian,TUVA,NA,upsid,turk1311,language,safe,"48,436","92,6693",CN MN RU,Eurasia,Northern Eurasia,614,0,0,0,0,0,0
534,yaku1245,sah,Sakha,YAKUT,NA,upsid,turk1311,language,vulnerable,"61,6974","133,98",RU,Eurasia,Northern Eurasia,170,0,0,0,0,0,0
236,nort2697,azj,North Azerbaijani,AZERBAIJANI,NA,upsid,turk1311,language,safe,"40,9777","46,4737",AM AZ GE IR RU TR,Eurasia,Western Asia,266,0,0,0,0,0,0
597,nucl1301,tur,Turkish,TURKISH,NA,upsid,turk1311,language,safe,"39,8667","32,8667",AL AM AZ BG CY GE GR IQ IR MK SY TR,Eurasia,Western Asia,1068,0,0,0,0,0,0
538,selk1253,sel,Selkup,SELKUP,NA,upsid,ural1272,language,definitely endangered,"59,9409","82,3004",RU,Eurasia,Northern Eurasia,68,1,0,1,0,0,0
460,east2328,mhr,Eastern Mari,MARI,NA,upsid,ural1272,language,vulnerable,"55,8307","48,405",KZ RU,Eurasia,Europe,63,0,0,0,0,0,0
329,finn1318,fin,Finnish,FINNISH,NA,upsid,ural1272,language,safe,"64,7628","25,5577",EE FI NO RU SE,Eurasia,Europe,22,0,0,0,0,0,0
358,hung1274,hun,Hungarian,HUNGARIAN,NA,upsid,ural1272,language,severely endangered,"46,9068585714","19,6555271429",AT HR HU RO RS SI SK UA,Eurasia,Europe,110,0,0,0,0,0,0
426,komi1268,kpv,Komi-Zyrian,KOMI,NA,upsid,ural1272,language,critically endangered,"64,0527","54,946",RU,Eurasia,Europe,181,0,0,0,0,0,0
549,sout2674,sma,South Saami,SAAMI,NA,upsid,ural1272,language,definitely endangered,"62,8801","13,7006",NO SE,Eurasia,Europe,733,0,0,0,0,0,0
396,khan1273,kca,Kazym-Berezover-Suryskarer Khanty,KHANTY,NA,upsid,ural1272,language,definitely endangered,"62,4308","66,1218",RU,Eurasia,Northern Eurasia,15,0,0,0,0,0,0
638,nene1249,yrk,Tundra Nenets,NENETS,NA,upsid,ural1272,language,definitely endangered,"66,1775","71,0234",RU,Eurasia,Northern Eurasia,55,0,0,0,0,0,0
494,ngan1291,nio,Nganasan,NGANASAN,NA,upsid,ural1272,language,severely endangered,"73,1354","86,2106",RU,Eurasia,Northern Eurasia,30,0,0,0,0,0,0
356,hopi1249,hop,Hopi,HOPI,NA,upsid,utoa1244,language,definitely endangered,"35,7653","-110,535",US,North America,North America,1728,1,0,1,0,0,0
447,luis1253,lui,Luiseno,LUISENO,NA,upsid,utoa1244,language,extinct,"33,3184","-116,939",US,North America,North America,822,2,0,2,0,0,0
486,nort2957,ncj,Northern Puebla Nahuatl,NAHUATL,NA,upsid,utoa1244,language,safe,"20,1356","-97,9814",MX,North America,Middle America,1438,0,0,0,0,0,0
629,yaqu1251,yaq,Yaqui,YAQUI,NA,upsid,utoa1244,language,vulnerable,"29,9446","-110,681",MX US,North America,Middle America,849,0,0,0,0,0,0
624,kawa1283,xaw,Kawaiisu,KAWAIISU,NA,upsid,utoa1244,language,critically endangered,"36,0538","-118,679",US,North America,North America,1328,0,0,0,0,0,0
509,toho1245,ood,Tohono O'odham,PAPAGO,NA,upsid,utoa1244,language,vulnerable,"31,7973","-111,995",MX US,North America,North America,630,0,0,0,0,0,0
437,kwak1269,kwk,Kwak'wala,KWAKW'ALA,NA,upsid,waka1280,language,definitely endangered,"50,9269","-127,308",CA US,North America,North America,79,8,0,8,8,0,8
500,nuuc1236,nuk,Nuu-chah-nulth,TSESHAHT,NA,upsid,waka1280,language,critically endangered,"49,67","-126,67",US,North America,North America,401,6,4,2,9,1,8
613,wint1259,wit,Wintu,WINTU,NA,upsid,wint1258,language,extinct,"39,7176","-122,445",US,North America,North America,181,3,0,3,7,0,7
601,ngar1284,ung,Ngarinyin,NGARINJIN,NA,upsid,worr1236,language,critically endangered,"-16,4006","126,433",AU,Australia,Australia,567,0,0,0,0,0,0
541,nina1238,shb,Ninam,SHIRIANA,NA,upsid,yano1268,language,vulnerable,"4,03894","-62,7801",BR VE,South America,South America,1050,0,0,0,0,0,0
637,yare1248,yrb,Yareba,YAREBA,NA,upsid,yare1250,language,safe,"-9,50651","148,605",PG,Papunesia,New Guinea,340,0,0,0,0,0,0
644,nucl1454,yva,Yawa,YAWA,NA,upsid,yawa1259,language,safe,"-1,77196","136,263",ID,Papunesia,New Guinea,946,0,0,0,0,0,0
399,kett1243,ket,Ket,KET,NA,upsid,yeni1252,language,definitely endangered,"63,7551","87,5466",RU,Eurasia,Northern Eurasia,28,1,0,1,0,0,0
634,nort2745,ykg,Northern Yukaghir,YUKAGHIR,NA,upsid,yuka1259,language,critically endangered,"65,3874","151,318",RU,Eurasia,Northern Eurasia,12,2,0,2,0,0,0
607,wapp1239,wao,Wappo,WAPPO,NA,upsid,yuki1242,language,extinct,"38,25","-122,5",US,North America,North America,47,0,0,0,6,0,6
229,arab1268,arl,Arabela,ARABELA,NA,upsid,zapa1251,language,critically endangered,"-1,96126","-75,0612",PE,South America,South America,168,0,0,0,0,0,0
621,bert1248,wti,Berta,BERTA,NA,upsid,Berta,language,definitely endangered,"10,6474","34,7042",ET SD,Africa,Africa,866,0,0,0,3,0,3
374,iton1250,ito,Itonama,ITONAMA,NA,upsid,Itonama,language,critically endangered,"-12,80431","-64,35748",BO,South America,South America,136,0,0,0,3,0,3
635,yana1271,ynn,Yana,YANA,NA,upsid,Yana,language,extinct,"39,2769","-121,608",US,North America,North America,22,0,0,0,4,0,4
648,zuni1245,zun,Zuni,ZUNI,NA,upsid,Zuni,language,definitely endangered,"35,0056","-108,782",US,North America,North America,2202,0,0,0,4,0,4
416,klam1254,kla,Klamath-Modoc,KLAMATH,NA,upsid,Klamath-Modoc,language,extinct,"42,5861","-121,704",US,North America,North America,1314,3,0,3,5,0,5
532,sand1273,sad,Sandawe,SANDAWE,NA,upsid,Sandawe,language,vulnerable,"-5,26918","35,4808",TZ,Africa,Africa,1222,0,0,0,5,0,5
357,hadz1240,hts,Hadza,HADZA,NA,upsid,Hadza,language,definitely endangered,"-3,83115","35,0458",TZ,Africa,Africa,1136,0,0,0,6,1,5
641,yuch1247,yuc,Yuchi,YUCHI,NA,upsid,Yuchi,language,critically endangered,"35,96146","-95,03933",US,North America,North America,277,0,0,0,9,0,9
321,basq1248,eus,Basque,BASQUE,NA,upsid,Basque,language,vulnerable,"43,2787","-1,31622",ES FR,Eurasia,Europe,618,1,1,0,0,0,0
264,buru1296,bsk,Burushaski,BURUSHASKI,NA,upsid,Burushaski,language,definitely endangered,"36,2161","74,8236",IN PK,Eurasia,Northern Eurasia,3087,4,1,3,0,0,0
496,gily1242,niv,Nivkh,NIVKH,NA,upsid,Nivkh,language,severely endangered,"52,59","140,681",RU,Eurasia,Northern Eurasia,488,4,0,4,0,0,0
433,kuna1268,kun,Kunama,KUNAMA,NA,upsid,Kunama,language,safe,"14,5879","37,5292",ER ET SD,Africa,Africa,1024,0,0,0,0,0,0
501,nara1262,nrb,Nara,NERA,NA,upsid,Nara,language,safe,"15,3251","37,499",ER,Africa,Africa,988,0,0,0,0,0,0
577,tiwi1244,tiw,Tiwi,TIWI,NA,upsid,Tiwi,language,definitely endangered,"-11,6308","130,949",AU,Australia,Australia,9,0,0,0,0,0,0
326,fasu1242,faa,Fasu,FASU,NA,upsid,Fasu,language,definitely endangered,"-6,62687","143,284",PG,Papunesia,New Guinea,299,0,0,0,0,0,0
464,morb1239,moq,Mor (Bomberai Peninsula),MOR,NA,upsid,Mor (Bomberai Peninsula),language,severely endangered,"-2,85747","132,845",ID,Papunesia,New Guinea,1,0,0,0,0,0,0
559,savo1255,svs,Savosavo,SAVOSAVO,NA,upsid,Savosavo,language,definitely endangered,"-9,12853","159,814",SB,Papunesia,New Guinea,334,0,0,0,0,0,0
438,karo1304,kyh,Karok,KAROK,NA,upsid,Karok,language,critically endangered,"41,8228","-123,315",US,North America,North America,798,0,0,0,0,0,0
590,tonk1249,tqw,Tonkawa,TONKAWA,NA,upsid,Tonkawa,language,extinct,"30,25","-96,75",US,North America,North America,86,0,0,0,0,0,0
596,tuni1252,tun,Tunica,TUNICA,NA,upsid,Tunica,language,extinct,"30,9888","-92,5403",US,North America,North America,20,0,0,0,0,0,0
563,aika1237,tba,Aikanã,HUARI,NA,upsid,Aikanã,language,vulnerable,"-12,6695","-60,5353",BR,South America,South America,512,0,0,0,0,0,0
224,ando1256,ano,Andoque,ANDOKE,NA,upsid,Andoque,language,definitely endangered,"-0,53751","-72,0869",CO,South America,South America,104,0,0,0,0,0,0
392,cams1241,kbh,Camsá,CAMSA,NA,upsid,Camsá,language,definitely endangered,"1,14537","-76,8931",CO,South America,South America,2165,0,0,0,0,0,0
296,cayu1262,cyb,Cayubaba,CAYUVAVA,NA,upsid,Cayubaba,language,critically endangered,"-13,2482","-65,4822",BO,South America,South America,137,0,0,0,0,0,0
289,cofa1242,con,Cofán,COFAN,NA,upsid,Cofán,language,definitely endangered,"0,276675","-77,0643",CO EC,South America,South America,514,0,0,0,0,0,0
332,fuln1247,fun,Fulniô,IATE,NA,upsid,Fulniô,language,definitely endangered,"-9,02591","-37,1402",BR,South America,South America,364,0,0,0,0,0,0
371,iran1263,irn,Irántxe-Münkü,IRANXE,NA,upsid,Irántxe-Münkü,language,severely endangered,"-12,7178","-57,9806",BR,South America,South America,400,0,0,0,0,0,0
479,movi1243,mzp,Movima,MOVIMA,NA,upsid,Movima,language,definitely endangered,"-13,8115","-65,6348",BO,South America,South America,137,0,0,0,0,0,0
513,paez1247,pbb,Páez,PAEZ,NA,upsid,Páez,language,vulnerable,"2,61516","-76,3125",CO,South America,South America,2931,0,0,0,0,0,0
477,pira1253,myp,Pirahã,PIRAHA,NA,upsid,Pirahã,language,vulnerable,"-6,77713","-61,8167",BR,South America,South America,100,0,0,0,0,0,0
588,trum1247,tpy,Trumai,TRUMAI,NA,upsid,Trumai,language,critically endangered,"-11,8119","-53,5717",BR,South America,South America,229,0,0,0,0,0,0
232,waor1240,auc,Waorani,AUCA,NA,upsid,Waorani,language,definitely endangered,"-1,12312","-76,683",EC,South America,South America,266,0,0,0,0,0,0
609,wara1303,wba,Warao,WARAO,NA,upsid,Warao,language,vulnerable,"7,50851","-59,3528",GY SR VE,South America,South America,71,0,0,0,0,0,0
